CZ-2C R/B               
1 54039U 22132E   26029.50186826  .00053502  00000+0  69572-3 0  9992
2 54039  97.2952  31.7394 0016858 230.6681 129.3082 15.58451456184268
GSLV R/B                
1 54149U 22138AN  26029.47252654  .00005339  00000+0  46651-3 0  9997
2 54149  87.3842 179.4863 0019582 297.2684  62.6553 14.96463960178065
XRISM                   
1 57800U 23137A   26028.74738385  .00008264  00000+0  47707-3 0  9996
2 57800  31.0005 181.9064 0008031 359.1676   0.8948 15.10973375131745
ACS3                    
1 59588U 24077B   26029.44781809  .00023357  00000+0  19432-1 0  9994
2 59588  97.2286 339.3789 0047228 204.8797 155.0089 13.87943134 88752
SZ-21 MODULE            
1 66515U 25246C   26029.43265624  .00042311  00000+0  40964-3 0  9999
2 66515  41.4753  84.4715 0003430 253.2584 106.7881 15.65602134 11913
