CCSDS_OMM_VERS = 2.0
CREATION_DATE  = 
ORIGINATOR     = 

OBJECT_NAME    = CZ-2C R/B
OBJECT_ID      = 2022-132E
CENTER_NAME    = EARTH
REF_FRAME      = TEME
TIME_SYSTEM    = UTC
MEAN_ELEMENT_THEORY = SGP/SGP4

EPOCH          = 2026-01-29T12:02:41.417664
MEAN_MOTION    = 15.58451456
ECCENTRICITY   = .0016858
INCLINATION    = 97.2952
RA_OF_ASC_NODE = 31.7394
ARG_OF_PERICENTER = 230.6681
MEAN_ANOMALY   = 129.3082

EPHEMERIS_TYPE = 0
CLASSIFICATION_TYPE = U
NORAD_CAT_ID   = 54039
ELEMENT_SET_NO = 999
REV_AT_EPOCH   = 18426
BSTAR          = .69572E-3
MEAN_MOTION_DOT = .53502E-3
MEAN_MOTION_DDOT = 0

CCSDS_OMM_VERS = 2.0
CREATION_DATE  = 
ORIGINATOR     = 

OBJECT_NAME    = GSLV R/B
OBJECT_ID      = 2022-138AN
CENTER_NAME    = EARTH
REF_FRAME      = TEME
TIME_SYSTEM    = UTC
MEAN_ELEMENT_THEORY = SGP/SGP4

EPOCH          = 2026-01-29T11:20:26.293056
MEAN_MOTION    = 14.96463960
ECCENTRICITY   = .0019582
INCLINATION    = 87.3842
RA_OF_ASC_NODE = 179.4863
ARG_OF_PERICENTER = 297.2684
MEAN_ANOMALY   = 62.6553

EPHEMERIS_TYPE = 0
CLASSIFICATION_TYPE = U
NORAD_CAT_ID   = 54149
ELEMENT_SET_NO = 999
REV_AT_EPOCH   = 17806
BSTAR          = .46651E-3
MEAN_MOTION_DOT = .5339E-4
MEAN_MOTION_DDOT = 0

CCSDS_OMM_VERS = 2.0
CREATION_DATE  = 
ORIGINATOR     = 

OBJECT_NAME    = XRISM
OBJECT_ID      = 2023-137A
CENTER_NAME    = EARTH
REF_FRAME      = TEME
TIME_SYSTEM    = UTC
MEAN_ELEMENT_THEORY = SGP/SGP4

EPOCH          = 2026-01-28T17:56:13.964640
MEAN_MOTION    = 15.10973375
ECCENTRICITY   = .00080312
INCLINATION    = 31.0005
RA_OF_ASC_NODE = 181.9064
ARG_OF_PERICENTER = 359.1676
MEAN_ANOMALY   = 0.8948

EPHEMERIS_TYPE = 0
CLASSIFICATION_TYPE = U
NORAD_CAT_ID   = 57800
ELEMENT_SET_NO = 999
REV_AT_EPOCH   = 13174
BSTAR          = .47706916E-3
MEAN_MOTION_DOT = .8264E-4
MEAN_MOTION_DDOT = 0

CCSDS_OMM_VERS = 2.0
CREATION_DATE  = 
ORIGINATOR     = 

OBJECT_NAME    = ACS3
OBJECT_ID      = 2024-077B
CENTER_NAME    = EARTH
REF_FRAME      = TEME
TIME_SYSTEM    = UTC
MEAN_ELEMENT_THEORY = SGP/SGP4

EPOCH          = 2026-01-29T10:44:51.482976
MEAN_MOTION    = 13.87943134
ECCENTRICITY   = .0047228
INCLINATION    = 97.2286
RA_OF_ASC_NODE = 339.3789
ARG_OF_PERICENTER = 204.8797
MEAN_ANOMALY   = 155.0089

EPHEMERIS_TYPE = 0
CLASSIFICATION_TYPE = U
NORAD_CAT_ID   = 59588
ELEMENT_SET_NO = 999
REV_AT_EPOCH   = 8875
BSTAR          = .19432E-1
MEAN_MOTION_DOT = .23357E-3
MEAN_MOTION_DDOT = 0

CCSDS_OMM_VERS = 2.0
CREATION_DATE  = 
ORIGINATOR     = 

OBJECT_NAME    = SZ-21 MODULE
OBJECT_ID      = 2025-246C
CENTER_NAME    = EARTH
REF_FRAME      = TEME
TIME_SYSTEM    = UTC
MEAN_ELEMENT_THEORY = SGP/SGP4

EPOCH          = 2026-01-29T10:23:01.499136
MEAN_MOTION    = 15.65602134
ECCENTRICITY   = .000343
INCLINATION    = 41.4753
RA_OF_ASC_NODE = 84.4715
ARG_OF_PERICENTER = 253.2584
MEAN_ANOMALY   = 106.7881

EPHEMERIS_TYPE = 0
CLASSIFICATION_TYPE = U
NORAD_CAT_ID   = 66515
ELEMENT_SET_NO = 999
REV_AT_EPOCH   = 1191
BSTAR          = .40964E-3
MEAN_MOTION_DOT = .42311E-3
MEAN_MOTION_DDOT = 0

